[{"OBJECT_NAME":"STARLINK-32600","OBJECT_ID":"2024-225R","EPOCH":"2026-03-09T15:11:36.351168","MEAN_MOTION":14.98350761,"ECCENTRICITY":0.0003012,"INCLINATION":70.0026,"RA_OF_ASC_NODE":154.7094,"ARG_OF_PERICENTER":264.8696,"MEAN_ANOMALY":95.2119,"EPHEMERIS_TYPE":0,"CLASSIFICATION_TYPE":"U","NORAD_CAT_ID":62178,"ELEMENT_SET_NO":999,"REV_AT_EPOCH":7011,"BSTAR":0.00086211,"MEAN_MOTION_DOT":0.00010214,"MEAN_MOTION_DDOT":0},{"OBJECT_NAME":"CZ-4B DEB","OBJECT_ID":"2013-057D","EPOCH":"2026-03-09T09:16:47.914752","MEAN_MOTION":14.5751129,"ECCENTRICITY":0.01795645,"INCLINATION":74.9688,"RA_OF_ASC_NODE":52.7396,"ARG_OF_PERICENTER":117.4056,"MEAN_ANOMALY":244.551,"EPHEMERIS_TYPE":0,"CLASSIFICATION_TYPE":"U","NORAD_CAT_ID":40531,"ELEMENT_SET_NO":999,"REV_AT_EPOCH":57727,"BSTAR":0.00073382472,"MEAN_MOTION_DOT":4.144e-5,"MEAN_MOTION_DDOT":0}]
